ONEWEB-0053             
1 45157U 20008AC  26177.13380049 -.00003093  00000+0 -88967-2 0  9999
2 45157  87.8821  34.5015 0001895  69.1183 291.0147 13.10392605309081
ONEWEB-0054             
1 45158U 20008AD  26177.16945059  .00002008  00000+0  57164-2 0  9999
2 45158  87.8838  34.4783 0001888  84.3363 275.7980 13.10360871309200
ONEWEB-0056             
1 45159U 20008AE  26177.14045088  .00000249  00000+0  67684-3 0  9995
2 45159  87.8831  34.4772 0002118  87.8397 272.2972 13.10376372309356
ONEWEB-0057             
1 45160U 20008AF  26177.15769171 -.00001082  00000+0 -31356-2 0  9998
2 45160  87.8827  34.4865 0002010  70.0094 290.1249 13.10378328309523
ONEWEB-0058             
1 45161U 20008AG  26177.14450558  .00000365  00000+0  10090-2 0  9997
2 45161  87.8818  34.4943 0001654  89.7380 270.3937 13.10370617309593
ONEWEB-0059             
1 45162U 20008AH  26177.14072325 -.00001968  00000+0 -56752-2 0  9997
2 45162  87.8822  34.4938 0001885  78.3004 281.8335 13.10380560309492
ONEWEB-0062             
1 45163U 20008AJ  26177.16421375  .00006832  00000+0  19531-1 0  9999
2 45163  87.8831  34.4777 0001639  89.4422 270.6894 13.10334701309366
ONEWEB-0065             
1 45164U 20008AK  26176.96909486  .00004198  00000+0  11988-1 0  9992
2 45164  87.8832  34.5246 0002051  80.2468 279.8891 13.10345631309034
ONEWEB-0066             
1 45424U 20020A   26177.07341735  .00000132  00000+0  33579-3 0  9991
2 45424  87.8881  19.3019 0001653  85.3684 274.7633 13.11418569303842
ONEWEB-0067             
1 45425U 20020B   26177.11124588 -.00000005  00000+0 -50326-4 0  9993
2 45425  87.8901  19.2176 0001877  81.9104 278.2237 13.11422815303901
ONEWEB-0080             
1 45426U 20020C   26177.11085456 -.00000010  00000+0 -63046-4 0  9993
2 45426  87.8892  19.2915 0001750  97.2751 262.8576 13.11414165303870
ONEWEB-0090             
1 45427U 20020D   26177.06338074 -.00000280  00000+0 -82701-3 0  9992
2 45427  87.8893  19.3054 0001836  89.5126 270.6213 13.11418043303832
ONEWEB-0061             
1 45428U 20020E   26177.09532381  .00000545  00000+0  15018-2 0  9991
2 45428  87.8889  19.2834 0001772  87.7169 272.4162 13.11415883303796
ONEWEB-0081             
1 45429U 20020F   26177.07681037  .00000297  00000+0  80311-3 0  9996
2 45429  87.8887  19.2973 0001745  81.6669 278.4657 13.11418438303904
ONEWEB-0069             
1 45430U 20020G   26177.07863424 -.00009273  00000+0 -26206-1 0  9996
2 45430  87.8883  19.2992 0001433  93.8757 266.2535 13.11467644303835
ONEWEB-0031             
1 45431U 20020H   26177.11410249 -.00000149  00000+0 -45498-3 0  9994
2 45431  87.8877  19.2973 0001820  93.4712 266.6625 13.11414567303824
ONEWEB-0027             
1 45432U 20020J   26177.06975819  .00000025  00000+0  31664-4 0  9990
2 45432  87.9134   4.0978 0002174 101.2750 258.8626 13.17652383307523
ONEWEB-0064             
1 45433U 20020K   26176.57833396 -.00000260  00000+0 -77081-3 0  9994
2 45433  87.8881  19.3959 0001877  92.3119 267.8224 13.11414814303785
ONEWEB-0018             
1 45434U 20020L   26177.06818127 -.00000218  00000+0 -65033-3 0  9992
2 45434  87.8886  19.2981 0001404  87.1039 273.0249 13.11420325303795
ONEWEB-0083             
1 45435U 20020M   26176.98199465 -.00000423  00000+0 -12294-2 0  9998
2 45435  87.8892  19.3095 0001764  89.6554 270.4776 13.11419009303825
ONEWEB-0095             
1 45436U 20020N   26176.97350622 -.00000487  00000+0 -14088-2 0  9995
2 45436  87.8888  19.3198 0002533  87.7577 272.3841 13.11415240303821
ONEWEB-0092             
1 45437U 20020P   26177.08019242  .00000405  00000+0  11080-2 0  9996
2 45437  87.8890  19.2898 0002056  82.2896 277.8466 13.11413240303950
ONEWEB-0085             
1 45438U 20020Q   26176.98172010 -.00000399  00000+0 -11623-2 0  9995
2 45438  87.8885  19.3156 0001844  87.9849 272.1490 13.11418084303829
ONEWEB-0096             
1 45439U 20020R   26176.98353929 -.00000346  00000+0 -10131-2 0  9991
2 45439  87.8888  19.3119 0001964  88.4247 271.7106 13.11416634303810
ONEWEB-0037             
1 45440U 20020S   26177.08979000  .00000670  00000+0  18414-2 0  9999
2 45440  87.8902  19.2633 0001890  85.8867 274.2477 13.11913363303861
ONEWEB-0042             
1 45441U 20020T   26176.97324286 -.00000507  00000+0 -14667-2 0  9994
2 45441  87.8889  19.3102 0001816  84.5328 275.6007 13.11416841303812
ONEWEB-0098             
1 45442U 20020U   26176.96913549 -.00000417  00000+0 -12128-2 0  9990
2 45442  87.8889  19.3200 0001815  89.7826 270.3510 13.11416628303792
ONEWEB-0055             
1 45443U 20020V   26177.10041965  .00000360  00000+0  97999-3 0  9997
2 45443  87.8889  19.2928 0001809  90.1243 270.0092 13.11416438303781
ONEWEB-0093             
1 45444U 20020W   26177.08034185  .00000436  00000+0  11930-2 0  9995
2 45444  87.8892  19.2899 0001730  74.0838 286.0481 13.11417812303840
ONEWEB-0029             
1 45445U 20020X   26176.64967784  .00000035  00000+0  61948-4 0  9998
2 45445  87.8878  19.3840 0001662  81.4310 278.7006 13.11413718303766
ONEWEB-0068             
1 45446U 20020Y   26177.08006984  .00000411  00000+0  11228-2 0  9996
2 45446  87.8889  19.2939 0001683  82.7187 277.4132 13.11418062303769
